start=new Date('2022-03-28T00:00:00.000Z').valueOf();
sats=[{"CLASSIFICATION_TYPE":"U","MEAN_MOTION_DOT":"0.00000858","MEAN_ELEMENT_THEORY":"SGP4","PERIOD":"95.592","ELEMENT_SET_NO":"999","REV_AT_EPOCH":"7999","OBJECT_NAME":"STARLINK-1826","ECCENTRICITY":"0.00014220","PERIAPSIS":"546.232","RA_OF_ASC_NODE":"214.3388","REF_FRAME":"TEME","GP_ID":"199863497","MEAN_MOTION":"15.06398871","INCLINATION":"53.0542","CENTER_NAME":"EARTH","COUNTRY_CODE":"US","LAUNCH_DATE":"2020-10-18","OBJECT_TYPE":"PAYLOAD","ARG_OF_PERICENTER":"62.7468","FILE":"3377053","OBJECT_ID":"2020-073BF","RCS_SIZE":"LARGE","EPOCH":"2022-03-27T17:26:50.783424","TIME_SYSTEM":"UTC","NORAD_CAT_ID":"46723","EPHEMERIS_TYPE":"0","SITE":"AFETR","APOAPSIS":"548.202","MEAN_MOTION_DDOT":"0.0000000000000","DECAY_DATE":null,"BSTAR":"0.00007649300000","SEMIMAJOR_AXIS":"6925.352","TLE_LINE1":"1 46723U 20073BF  22086.72697666  .00000858  00000-0  76493-4 0  9995","TLE_LINE2":"2 46723  53.0542 214.3388 0001422  62.7468 297.3666 15.06398871 79995","MEAN_ANOMALY":"297.3666"},{"EPHEMERIS_TYPE":"0","APOAPSIS":"548.273","SITE":"AFETR","MEAN_MOTION_DDOT":"0.0000000000000","BSTAR":"0.00018750000000","DECAY_DATE":null,"TLE_LINE2":"2 46725  53.0546 253.7095 0001543  74.6737 285.4422 15.06402990 79455","TLE_LINE1":"1 46725U 20073BH  22086.86335728  .00002513  00000-0  18750-3 0  9991","MEAN_ANOMALY":"285.4422","SEMIMAJOR_AXIS":"6925.339","LAUNCH_DATE":"2020-10-18","OBJECT_TYPE":"PAYLOAD","ARG_OF_PERICENTER":"74.6737","FILE":"3377053","OBJECT_ID":"2020-073BH","RCS_SIZE":"LARGE","EPOCH":"2022-03-27T20:43:14.068992","NORAD_CAT_ID":"46725","TIME_SYSTEM":"UTC","MEAN_MOTION_DOT":"0.00002513","ELEMENT_SET_NO":"999","PERIOD":"95.592","MEAN_ELEMENT_THEORY":"SGP4","REF_FRAME":"TEME","PERIAPSIS":"546.136","RA_OF_ASC_NODE":"253.7095","ECCENTRICITY":"0.00015430","OBJECT_NAME":"STARLINK-1828","REV_AT_EPOCH":"7945","MEAN_MOTION":"15.06402990","GP_ID":"199863734","INCLINATION":"53.0546","CENTER_NAME":"EARTH","COUNTRY_CODE":"US","CLASSIFICATION_TYPE":"U"},{"MEAN_MOTION_DOT":"0.00002035","MEAN_ELEMENT_THEORY":"SGP4","PERIOD":"95.592","ELEMENT_SET_NO":"999","REV_AT_EPOCH":"7965","OBJECT_NAME":"STARLINK-1829","PERIAPSIS":"545.433","RA_OF_ASC_NODE":"238.9110","ECCENTRICITY":"0.00025820","REF_FRAME":"TEME","GP_ID":"199862496","MEAN_MOTION":"15.06397464","INCLINATION":"53.0526","COUNTRY_CODE":"US","CENTER_NAME":"EARTH","CLASSIFICATION_TYPE":"U","EPHEMERIS_TYPE":"0","SITE":"AFETR","APOAPSIS":"549.009","MEAN_MOTION_DDOT":"0.0000000000000","DECAY_DATE":null,"BSTAR":"0.00015550000000","SEMIMAJOR_AXIS":"6925.356","TLE_LINE2":"2 46726  53.0526 238.9110 0002582  37.7293 322.3877 15.06397464 79654","MEAN_ANOMALY":"322.3877","TLE_LINE1":"1 46726U 20073BJ  22086.82235390  .00002035  00000-0  15550-3 0  9996","LAUNCH_DATE":"2020-10-18","OBJECT_TYPE":"PAYLOAD","ARG_OF_PERICENTER":"37.7293","FILE":"3377053","OBJECT_ID":"2020-073BJ","EPOCH":"2022-03-27T19:44:11.376960","RCS_SIZE":"LARGE","TIME_SYSTEM":"UTC","NORAD_CAT_ID":"46726"},{"MEAN_MOTION_DOT":"0.00001166","PERIOD":"95.592","MEAN_ELEMENT_THEORY":"SGP4","ELEMENT_SET_NO":"999","OBJECT_NAME":"STARLINK-1830","REV_AT_EPOCH":"8000","RA_OF_ASC_NODE":"214.0964","PERIAPSIS":"546.212","ECCENTRICITY":"0.00014490","REF_FRAME":"TEME","GP_ID":"199862746","MEAN_MOTION":"15.06399331","INCLINATION":"53.0561","CENTER_NAME":"EARTH","COUNTRY_CODE":"US","CLASSIFICATION_TYPE":"U","EPHEMERIS_TYPE":"0","APOAPSIS":"548.219","SITE":"AFETR","MEAN_MOTION_DDOT":"0.0000000000000","DECAY_DATE":null,"BSTAR":"0.00009715700000","SEMIMAJOR_AXIS":"6925.351","TLE_LINE2":"2 46727  53.0561 214.0964 0001449  55.8851 304.2276 15.06399331 80006","TLE_LINE1":"1 46727U 20073BK  22086.77857797  .00001166  00000-0  97157-4 0  9990","MEAN_ANOMALY":"304.2276","LAUNCH_DATE":"2020-10-18","OBJECT_TYPE":"PAYLOAD","FILE":"3377053","ARG_OF_PERICENTER":"55.8851","OBJECT_ID":"2020-073BK","EPOCH":"2022-03-27T18:41:09.136608","RCS_SIZE":"LARGE","TIME_SYSTEM":"UTC","NORAD_CAT_ID":"46727"},{"ARG_OF_PERICENTER":"7.5236","FILE":"3376445","LAUNCH_DATE":"2020-10-18","OBJECT_TYPE":"PAYLOAD","RCS_SIZE":"LARGE","EPOCH":"2022-03-27T12:05:50.129952","TIME_SYSTEM":"UTC","NORAD_CAT_ID":"46728","OBJECT_ID":"2020-073BL","APOAPSIS":"291.332","SITE":"AFETR","EPHEMERIS_TYPE":"0","DECAY_DATE":null,"BSTAR":"0.00090208000000","SEMIMAJOR_AXIS":"6667.755","TLE_LINE2":"2 46728  53.0365 150.1445 0002568   7.5236 352.5829 15.94532360 81332","TLE_LINE1":"1 46728U 20073BL  22086.50405243  .00347115  58341-4  90208-3 0  9998","MEAN_ANOMALY":"352.5829","MEAN_MOTION_DDOT":"0.0000583410000","CLASSIFICATION_TYPE":"U","REV_AT_EPOCH":"8133","OBJECT_NAME":"STARLINK-1831","RA_OF_ASC_NODE":"150.1445","PERIAPSIS":"287.907","ECCENTRICITY":"0.00025680","REF_FRAME":"TEME","MEAN_MOTION_DOT":"0.00347115","PERIOD":"90.309","MEAN_ELEMENT_THEORY":"SGP4","ELEMENT_SET_NO":"999","CENTER_NAME":"EARTH","COUNTRY_CODE":"US","GP_ID":"199801861","MEAN_MOTION":"15.94532360","INCLINATION":"53.0365"},{"CENTER_NAME":"EARTH","COUNTRY_CODE":"US","MEAN_MOTION":"15.06404014","GP_ID":"199863735","INCLINATION":"53.0540","REF_FRAME":"TEME","PERIAPSIS":"546.104","RA_OF_ASC_NODE":"323.3886","ECCENTRICITY":"0.00015840","REV_AT_EPOCH":"7914","OBJECT_NAME":"STARLINK-1848","MEAN_MOTION_DOT":"0.00002872","ELEMENT_SET_NO":"999","MEAN_ELEMENT_THEORY":"SGP4","PERIOD":"95.592","CLASSIFICATION_TYPE":"U","BSTAR":"0.00021161000000","DECAY_DATE":null,"MEAN_ANOMALY":"307.5979","TLE_LINE2":"2 46740  53.0540 323.3886 0001584  52.5153 307.5979 15.06404014 79148","TLE_LINE1":"1 46740U 20074B   22086.93799580  .00002872  00000-0  21161-3 0  9995","SEMIMAJOR_AXIS":"6925.336","MEAN_MOTION_DDOT":"0.0000000000000","SITE":"AFETR","APOAPSIS":"548.298","EPHEMERIS_TYPE":"0","RCS_SIZE":"LARGE","EPOCH":"2022-03-27T22:30:42.837120","NORAD_CAT_ID":"46740","TIME_SYSTEM":"UTC","OBJECT_ID":"2020-074B","ARG_OF_PERICENTER":"52.5153","FILE":"3377053","LAUNCH_DATE":"2020-10-24","OBJECT_TYPE":"PAYLOAD"},{"CLASSIFICATION_TYPE":"U","GP_ID":"199862497","MEAN_MOTION":"15.06400032","INCLINATION":"53.0544","COUNTRY_CODE":"US","CENTER_NAME":"EARTH","MEAN_MOTION_DOT":"0.00003434","MEAN_ELEMENT_THEORY":"SGP4","PERIOD":"95.592","ELEMENT_SET_NO":"999","OBJECT_NAME":"STARLINK-1865","REV_AT_EPOCH":"7921","ECCENTRICITY":"0.00016530","PERIAPSIS":"546.069","RA_OF_ASC_NODE":"318.6038","REF_FRAME":"TEME","OBJECT_ID":"2020-074C","RCS_SIZE":"LARGE","EPOCH":"2022-03-27T21:19:43.606560","TIME_SYSTEM":"UTC","NORAD_CAT_ID":"46741","LAUNCH_DATE":"2020-10-24","OBJECT_TYPE":"PAYLOAD","FILE":"3377053","ARG_OF_PERICENTER":"61.8550","MEAN_MOTION_DDOT":"0.0000000000000","DECAY_DATE":null,"BSTAR":"0.00024935000000","SEMIMAJOR_AXIS":"6925.348","TLE_LINE2":"2 46741  53.0544 318.6038 0001653  61.8550 298.2605 15.06400032 79216","MEAN_ANOMALY":"298.2605","TLE_LINE1":"1 46741U 20074C   22086.88869915  .00003434  00000-0  24935-3 0  9997","EPHEMERIS_TYPE":"0","APOAPSIS":"548.358","SITE":"AFETR"},{"CLASSIFICATION_TYPE":"U","INCLINATION":"53.0561","GP_ID":"199840087","MEAN_MOTION":"15.06399864","COUNTRY_CODE":"US","CENTER_NAME":"EARTH","MEAN_ELEMENT_THEORY":"SGP4","PERIOD":"95.592","ELEMENT_SET_NO":"999","MEAN_MOTION_DOT":"0.00001494","REV_AT_EPOCH":"7923","OBJECT_NAME":"STARLINK-1872","REF_FRAME":"TEME","PERIAPSIS":"546.150","RA_OF_ASC_NODE":"318.4356","ECCENTRICITY":"0.00015360","OBJECT_ID":"2020-074D","TIME_SYSTEM":"UTC","NORAD_CAT_ID":"46742","RCS_SIZE":"LARGE","EPOCH":"2022-03-27T22:12:47.916576","OBJECT_TYPE":"PAYLOAD","LAUNCH_DATE":"2020-10-24","ARG_OF_PERICENTER":"67.1105","FILE":"3376983","MEAN_MOTION_DDOT":"0.0000000000000","SEMIMAJOR_AXIS":"6925.349","TLE_LINE2":"2 46742  53.0561 318.4356 0001536  67.1105 293.0046 15.06399864 79236","MEAN_ANOMALY":"293.0046","TLE_LINE1":"1 46742U 20074D   22086.92555459  .00001494  00000-0  11916-3 0  9997","DECAY_DATE":null,"BSTAR":"0.00011916000000","EPHEMERIS_TYPE":"0","SITE":"AFETR","APOAPSIS":"548.278"},{"CLASSIFICATION_TYPE":"U","INCLINATION":"53.0542","GP_ID":"199862999","MEAN_MOTION":"15.06403053","COUNTRY_CODE":"US","CENTER_NAME":"EARTH","MEAN_ELEMENT_THEORY":"SGP4","PERIOD":"95.592","ELEMENT_SET_NO":"999","MEAN_MOTION_DOT":"0.00001757","OBJECT_NAME":"STARLINK-1892","REV_AT_EPOCH":"7921","PERIAPSIS":"546.240","ECCENTRICITY":"0.00013920","RA_OF_ASC_NODE":"318.6271","REF_FRAME":"TEME","OBJECT_ID":"2020-074E","TIME_SYSTEM":"UTC","NORAD_CAT_ID":"46743","RCS_SIZE":"LARGE","EPOCH":"2022-03-27T21:09:06.882624","OBJECT_TYPE":"PAYLOAD","LAUNCH_DATE":"2020-10-24","ARG_OF_PERICENTER":"84.0006","FILE":"3377053","MEAN_MOTION_DDOT":"0.0000000000000","SEMIMAJOR_AXIS":"6925.339","TLE_LINE2":"2 46743  53.0542 318.6271 0001392  84.0006 276.1141 15.06403053 79214","MEAN_ANOMALY":"276.1141","TLE_LINE1":"1 46743U 20074E   22086.88132966  .00001757  00000-0  13679-3 0  9997","DECAY_DATE":null,"BSTAR":"0.00013679000000","EPHEMERIS_TYPE":"0","APOAPSIS":"548.168","SITE":"AFETR"},{"CLASSIFICATION_TYPE":"U","INCLINATION":"53.0565","GP_ID":"199863236","MEAN_MOTION":"15.06400465","CENTER_NAME":"EARTH","COUNTRY_CODE":"US","MEAN_ELEMENT_THEORY":"SGP4","PERIOD":"95.592","ELEMENT_SET_NO":"999","MEAN_MOTION_DOT":"0.00001714","OBJECT_NAME":"STARLINK-1894","REV_AT_EPOCH":"7921","RA_OF_ASC_NODE":"318.5500","PERIAPSIS":"545.951","REF_FRAME":"TEME","ECCENTRICITY":"0.00018210","OBJECT_ID":"2020-074F","TIME_SYSTEM":"UTC","NORAD_CAT_ID":"46744","RCS_SIZE":"LARGE","EPOCH":"2022-03-27T21:35:38.631552","OBJECT_TYPE":"PAYLOAD","LAUNCH_DATE":"2020-10-24","FILE":"3377053","ARG_OF_PERICENTER":"53.8060","MEAN_MOTION_DDOT":"0.0000000000000","SEMIMAJOR_AXIS":"6925.347","TLE_LINE2":"2 46744  53.0565 318.5500 0001821  53.8060 306.3097 15.06400465 79215","TLE_LINE1":"1 46744U 20074F   22086.89975268  .00001714  00000-0  13393-3 0  9995","MEAN_ANOMALY":"306.3097","DECAY_DATE":null,"BSTAR":"0.00013393000000","EPHEMERIS_TYPE":"0","APOAPSIS":"548.473","SITE":"AFETR"}];
